{
  "type": "FeatureCollection",
  "name": "mumbai_wards",
  "crs": {
    "type": "name",
    "properties": {
      "name": "urn:ogc:def:crs:OGC:1.3:CRS84"
    }
  },
  "features": [
    {
      "type": "Feature",
      "properties": {
        "ward_code": "A",
        "ward_name": "Colaba",
        "zone": "South",
        "area_sqkm": 3.4,
        "population": 65000
      },
      "geometry": {
        "type": "Polygon",
        "coordinates": [
          [
            [72.8100, 18.9000],
            [72.8350, 18.9000],
            [72.8350, 18.9250],
            [72.8100, 18.9250],
            [72.8100, 18.9000]
          ]
        ]
      }
    },
    {
      "type": "Feature",
      "properties": {
        "ward_code": "B",
        "ward_name": "Dockyard Road",
        "zone": "South",
        "area_sqkm": 2.1,
        "population": 58000
      },
      "geometry": {
        "type": "Polygon",
        "coordinates": [
          [
            [72.8200, 18.9250],
            [72.8450, 18.9250],
            [72.8450, 18.9450],
            [72.8200, 18.9450],
            [72.8200, 18.9250]
          ]
        ]
      }
    },
    {
      "type": "Feature",
      "properties": {
        "ward_code": "C",
        "ward_name": "Kalbadevi",
        "zone": "South",
        "area_sqkm": 1.8,
        "population": 85000
      },
      "geometry": {
        "type": "Polygon",
        "coordinates": [
          [
            [72.8250, 18.9450],
            [72.8500, 18.9450],
            [72.8500, 18.9600],
            [72.8250, 18.9600],
            [72.8250, 18.9450]
          ]
        ]
      }
    },
    {
      "type": "Feature",
      "properties": {
        "ward_code": "D",
        "ward_name": "Girgaon",
        "zone": "South",
        "area_sqkm": 2.3,
        "population": 72000
      },
      "geometry": {
        "type": "Polygon",
        "coordinates": [
          [
            [72.8150, 18.9600],
            [72.8400, 18.9600],
            [72.8400, 18.9750],
            [72.8150, 18.9750],
            [72.8150, 18.9600]
          ]
        ]
      }
    },
    {
      "type": "Feature",
      "properties": {
        "ward_code": "E",
        "ward_name": "Byculla",
        "zone": "South",
        "area_sqkm": 4.2,
        "population": 95000
      },
      "geometry": {
        "type": "Polygon",
        "coordinates": [
          [
            [72.8300, 18.9750],
            [72.8550, 18.9750],
            [72.8550, 18.9950],
            [72.8300, 18.9950],
            [72.8300, 18.9750]
          ]
        ]
      }
    },
    {
      "type": "Feature",
      "properties": {
        "ward_code": "F/N",
        "ward_name": "Matunga",
        "zone": "Central",
        "area_sqkm": 3.1,
        "population": 88000
      },
      "geometry": {
        "type": "Polygon",
        "coordinates": [
          [
            [72.8400, 19.0200],
            [72.8650, 19.0200],
            [72.8650, 19.0400],
            [72.8400, 19.0400],
            [72.8400, 19.0200]
          ]
        ]
      }
    },
    {
      "type": "Feature",
      "properties": {
        "ward_code": "F/S",
        "ward_name": "Sewri",
        "zone": "Central",
        "area_sqkm": 5.8,
        "population": 78000
      },
      "geometry": {
        "type": "Polygon",
        "coordinates": [
          [
            [72.8550, 18.9950],
            [72.8800, 18.9950],
            [72.8800, 19.0200],
            [72.8550, 19.0200],
            [72.8550, 18.9950]
          ]
        ]
      }
    },
    {
      "type": "Feature",
      "properties": {
        "ward_code": "G/N",
        "ward_name": "Dadar",
        "zone": "Central",
        "area_sqkm": 2.9,
        "population": 125000
      },
      "geometry": {
        "type": "Polygon",
        "coordinates": [
          [
            [72.8350, 19.0100],
            [72.8500, 19.0100],
            [72.8500, 19.0300],
            [72.8350, 19.0300],
            [72.8350, 19.0100]
          ]
        ]
      }
    },
    {
      "type": "Feature",
      "properties": {
        "ward_code": "G/S",
        "ward_name": "Parel",
        "zone": "Central",
        "area_sqkm": 3.5,
        "population": 98000
      },
      "geometry": {
        "type": "Polygon",
        "coordinates": [
          [
            [72.8300, 18.9950],
            [72.8550, 18.9950],
            [72.8550, 19.0150],
            [72.8300, 19.0150],
            [72.8300, 18.9950]
          ]
        ]
      }
    },
    {
      "type": "Feature",
      "properties": {
        "ward_code": "H/E",
        "ward_name": "Bandra East",
        "zone": "Western",
        "area_sqkm": 8.3,
        "population": 145000
      },
      "geometry": {
        "type": "Polygon",
        "coordinates": [
          [
            [72.8500, 19.0400],
            [72.8750, 19.0400],
            [72.8750, 19.0700],
            [72.8500, 19.0700],
            [72.8500, 19.0400]
          ]
        ]
      }
    },
    {
      "type": "Feature",
      "properties": {
        "ward_code": "H/W",
        "ward_name": "Bandra West",
        "zone": "Western",
        "area_sqkm": 4.7,
        "population": 132000
      },
      "geometry": {
        "type": "Polygon",
        "coordinates": [
          [
            [72.8250, 19.0400],
            [72.8500, 19.0400],
            [72.8500, 19.0650],
            [72.8250, 19.0650],
            [72.8250, 19.0400]
          ]
        ]
      }
    },
    {
      "type": "Feature",
      "properties": {
        "ward_code": "K/E",
        "ward_name": "Andheri East",
        "zone": "Western",
        "area_sqkm": 15.2,
        "population": 245000
      },
      "geometry": {
        "type": "Polygon",
        "coordinates": [
          [
            [72.8550, 19.1000],
            [72.8900, 19.1000],
            [72.8900, 19.1350],
            [72.8550, 19.1350],
            [72.8550, 19.1000]
          ]
        ]
      }
    },
    {
      "type": "Feature",
      "properties": {
        "ward_code": "K/W",
        "ward_name": "Andheri West",
        "zone": "Western",
        "area_sqkm": 12.8,
        "population": 215000
      },
      "geometry": {
        "type": "Polygon",
        "coordinates": [
          [
            [72.8200, 19.1000],
            [72.8550, 19.1000],
            [72.8550, 19.1350],
            [72.8200, 19.1350],
            [72.8200, 19.1000]
          ]
        ]
      }
    },
    {
      "type": "Feature",
      "properties": {
        "ward_code": "L",
        "ward_name": "Kurla",
        "zone": "Eastern",
        "area_sqkm": 16.4,
        "population": 265000
      },
      "geometry": {
        "type": "Polygon",
        "coordinates": [
          [
            [72.8750, 19.0650],
            [72.9100, 19.0650],
            [72.9100, 19.0950],
            [72.8750, 19.0950],
            [72.8750, 19.0650]
          ]
        ]
      }
    },
    {
      "type": "Feature",
      "properties": {
        "ward_code": "M/E",
        "ward_name": "Chembur",
        "zone": "Eastern",
        "area_sqkm": 13.6,
        "population": 185000
      },
      "geometry": {
        "type": "Polygon",
        "coordinates": [
          [
            [72.8900, 19.0300],
            [72.9250, 19.0300],
            [72.9250, 19.0650],
            [72.8900, 19.0650],
            [72.8900, 19.0300]
          ]
        ]
      }
    },
    {
      "type": "Feature",
      "properties": {
        "ward_code": "M/W",
        "ward_name": "Ghatkopar",
        "zone": "Eastern",
        "area_sqkm": 10.2,
        "population": 195000
      },
      "geometry": {
        "type": "Polygon",
        "coordinates": [
          [
            [72.8900, 19.0750],
            [72.9200, 19.0750],
            [72.9200, 19.1000],
            [72.8900, 19.1000],
            [72.8900, 19.0750]
          ]
        ]
      }
    },
    {
      "type": "Feature",
      "properties": {
        "ward_code": "N",
        "ward_name": "Ghatkopar",
        "zone": "Eastern",
        "area_sqkm": 8.7,
        "population": 165000
      },
      "geometry": {
        "type": "Polygon",
        "coordinates": [
          [
            [72.9000, 19.0950],
            [72.9300, 19.0950],
            [72.9300, 19.1200],
            [72.9000, 19.1200],
            [72.9000, 19.0950]
          ]
        ]
      }
    },
    {
      "type": "Feature",
      "properties": {
        "ward_code": "P/N",
        "ward_name": "Malad",
        "zone": "Western",
        "area_sqkm": 14.3,
        "population": 285000
      },
      "geometry": {
        "type": "Polygon",
        "coordinates": [
          [
            [72.8350, 19.1750],
            [72.8700, 19.1750],
            [72.8700, 19.2050],
            [72.8350, 19.2050],
            [72.8350, 19.1750]
          ]
        ]
      }
    },
    {
      "type": "Feature",
      "properties": {
        "ward_code": "P/S",
        "ward_name": "Goregaon",
        "zone": "Western",
        "area_sqkm": 11.8,
        "population": 235000
      },
      "geometry": {
        "type": "Polygon",
        "coordinates": [
          [
            [72.8350, 19.1450],
            [72.8700, 19.1450],
            [72.8700, 19.1750],
            [72.8350, 19.1750],
            [72.8350, 19.1450]
          ]
        ]
      }
    },
    {
      "type": "Feature",
      "properties": {
        "ward_code": "R/N",
        "ward_name": "Borivali",
        "zone": "Western",
        "area_sqkm": 25.7,
        "population": 315000
      },
      "geometry": {
        "type": "Polygon",
        "coordinates": [
          [
            [72.8400, 19.2200],
            [72.8800, 19.2200],
            [72.8800, 19.2550],
            [72.8400, 19.2550],
            [72.8400, 19.2200]
          ]
        ]
      }
    },
    {
      "type": "Feature",
      "properties": {
        "ward_code": "R/C",
        "ward_name": "Dahisar",
        "zone": "Western",
        "area_sqkm": 18.2,
        "population": 245000
      },
      "geometry": {
        "type": "Polygon",
        "coordinates": [
          [
            [72.8500, 19.2550],
            [72.8850, 19.2550],
            [72.8850, 19.2800],
            [72.8500, 19.2800],
            [72.8500, 19.2550]
          ]
        ]
      }
    },
    {
      "type": "Feature",
      "properties": {
        "ward_code": "R/S",
        "ward_name": "Kandivali",
        "zone": "Western",
        "area_sqkm": 16.5,
        "population": 275000
      },
      "geometry": {
        "type": "Polygon",
        "coordinates": [
          [
            [72.8350, 19.2050],
            [72.8700, 19.2050],
            [72.8700, 19.2300],
            [72.8350, 19.2300],
            [72.8350, 19.2050]
          ]
        ]
      }
    },
    {
      "type": "Feature",
      "properties": {
        "ward_code": "S",
        "ward_name": "Vikhroli",
        "zone": "Eastern",
        "area_sqkm": 17.9,
        "population": 185000
      },
      "geometry": {
        "type": "Polygon",
        "coordinates": [
          [
            [72.9100, 19.1050],
            [72.9450, 19.1050],
            [72.9450, 19.1400],
            [72.9100, 19.1400],
            [72.9100, 19.1050]
          ]
        ]
      }
    },
    {
      "type": "Feature",
      "properties": {
        "ward_code": "T",
        "ward_name": "Mulund",
        "zone": "Eastern",
        "area_sqkm": 19.4,
        "population": 225000
      },
      "geometry": {
        "type": "Polygon",
        "coordinates": [
          [
            [72.9300, 19.1450],
            [72.9650, 19.1450],
            [72.9650, 19.1800],
            [72.9300, 19.1800],
            [72.9300, 19.1450]
          ]
        ]
      }
    }
  ]
}
